GLOBALSTAR M069         
1 31573U 07020C   26194.35352083 -.00000090  00000+0  25942-4 0  9994
2 31573  52.0009 178.0647 0001705 206.3991 300.8376 12.23472181882009
GLOBALSTAR M072         
1 31574U 07020D   26194.55055060 -.00000071  00000+0  17604-3 0  9996
2 31574  51.9946  30.0590 0001648  32.2822   1.3138 11.91658730878124
GLOBALSTAR M066         
1 32265U 07048C   26193.85128615 -.00000065  00000+0  24796-3 0  9996
2 32265  51.9611 344.2390 0005630  97.0286  66.9340 12.30389166863389
GLOBALSTAR M079         
1 37188U 10054A   26194.33200230 -.00000101  00000+0  13480-4 0  9994
2 37188  52.0051  29.0813 0001114  74.3440 282.3273 12.62266410725847
GLOBALSTAR M074         
1 37189U 10054B   26194.52142399 -.00000098  00000+0  31406-4 0  9990
2 37189  52.0030  27.7659 0000869  91.4288 286.4251 12.62262029726488
GLOBALSTAR M076         
1 37190U 10054C   26194.55143718 -.00000085  00000+0  10662-3 0  9997
2 37190  52.0043  27.8802 0001094  87.5680 306.6403 12.62262322726208
GLOBALSTAR M077         
1 37191U 10054D   26194.25973845 -.00000093  00000+0 -27194-3 0  9995
2 37191  51.9951 113.1190 0002303 221.6558 307.2346 11.67547614724185
GLOBALSTAR M075         
1 37192U 10054E   26194.03344789 -.00000099  00000+0  24892-4 0  9999
2 37192  51.9950  71.4966 0000718  61.9364  77.7815 12.62267797725201
GLOBALSTAR M073         
1 37193U 10054F   26194.40455456 -.00000106  00000+0 -11221-4 0  9997
2 37193  52.0080 344.4875 0001081  93.9025 291.3444 12.62266869727240
GLOBALSTAR M083         
1 37739U 11033A   26194.42882816 -.00000085  00000+0  10542-3 0  9996
2 37739  51.9869 292.6077 0000811 104.0858 332.8024 12.62264050696267
GLOBALSTAR M088         
1 37740U 11033B   26194.42230458 -.00000092  00000+0  65818-4 0  9992
2 37740  52.0186 199.1173 0000079 147.8200  18.0885 12.62269452691807
GLOBALSTAR M091         
1 37741U 11033C   26194.27086071 -.00000114  00000+0 -59617-4 0  9992
2 37741  51.9977 162.5044 0000383  20.3238 117.6967 12.62264251692573
GLOBALSTAR M085         
1 37742U 11033D   26194.26430168 -.00000114  00000+0 -56520-4 0  9992
2 37742  52.0122 113.8395 0000747  38.3068 129.9147 12.62264316693085
GLOBALSTAR M081         
1 37743U 11033E   26194.20734021 -.00000122  00000+0 -10447-3 0  9998
2 37743  51.9951 116.4193 0000634  52.1765  96.9089 12.62265286693223
GLOBALSTAR M089         
1 37744U 11033F   26194.08869043 -.00000100  00000+0  22595-4 0  9991
2 37744  51.9933  70.9345 0000681  87.1405  63.6032 12.62267557694052
GLOBALSTAR M084         
1 38040U 11080A   26194.48238948 -.00000090  00000+0  78270-4 0  9990
2 38040  52.0021 297.2320 0000876 127.5884 312.9037 12.62263497672088
GLOBALSTAR M080         
1 38041U 11080B   26194.45327807 -.00000091  00000+0  70577-4 0  9994
2 38041  52.0064 299.0477 0000322  81.0136 356.9773 12.62257328672204
GLOBALSTAR M082         
1 38042U 11080C   26194.47401115 -.00000071  00000+0  18317-3 0  9993
2 38042  52.0063 254.4891 0000207  94.8998   7.2449 12.62264119672919
GLOBALSTAR M092         
1 38043U 11080D   26194.43303603 -.00000088  00000+0  88877-4 0  9990
2 38043  52.0104 345.0105 0000806 100.4772 294.7204 12.62267775671361
GLOBALSTAR M090         
1 38044U 11080E   26194.33731075 -.00000066  00000+0  21235-3 0  9998
2 38044  52.0109 248.8695 0000441  97.8861 341.5157 12.62269392673013
GLOBALSTAR M086         
1 38045U 11080F   26194.35903874 -.00000079  00000+0  13766-3 0  9993
2 38045  51.9878 248.6890 0001555 109.3959 332.3649 12.62287710672965
GLOBALSTAR M097         
1 39072U 13005A   26194.29363462 -.00000118  00000+0 -80269-4 0  9997
2 39072  52.0026 163.8647 0000383  37.5413 322.5480 12.62271431620203
GLOBALSTAR M093         
1 39073U 13005B   26194.26686013 -.00000115  00000+0 -59923-4 0  9995
2 39073  52.0087 157.3029 0000608  41.5808 318.5105 12.62266344620156
GLOBALSTAR M094         
1 39074U 13005C   26193.87079164 -.00000121  00000+0 -95421-4 0  9995
2 39074  51.9967  72.6003 0000948  58.2720 301.8239 12.62264077621715
GLOBALSTAR M096         
1 39075U 13005D   26194.20105698 -.00000117  00000+0 -75049-4 0  9995
2 39075  52.0067 120.4160 0000702  38.1669 321.9247 12.62265679620677
GLOBALSTAR M078         
1 39076U 13005E   26194.41173075 -.00000095  00000+0  50443-4 0  9998
2 39076  51.9843 203.7494 0000788 332.9805  27.1021 12.62260133619329
GLOBALSTAR M095         
1 39077U 13005F   26193.40901959 -.00000081  00000+0  12839-3 0  9998
2 39077  52.0054 204.4426 0000352  10.4758 349.6116 12.62264177619050
GLOBALSTAR M087         
1 52888U 22064A   26194.45153435 -.00000105  00000+0 -72890-5 0  9995
2 52888  52.0015 342.4924 0000926  83.5038 276.5934 12.62269311194450
